ONEWEB-0706             
1 61611U 24188T   25190.82287286  .00000691  00000+0  19558-2 0  9993
2 61611  87.8827 104.5481 0001983  65.2309 294.9024 13.09906706 38547
ONEWEB-0707             
1 61612U 24188U   25191.13722839  .00000638  00000+0  17902-2 0  9999
2 61612  87.8816 104.4542 0002174  60.7361 299.3984 13.10373912 36567
ONEWEB-0708             
1 61613U 24188V   25191.23185161 -.00000124  00000+0 -39239-3 0  9992
2 61613  87.8872 104.4552 0001741  52.9315 307.1972 13.10369230 36789
